KUIPER-00061            
1 64521U 25134X   25249.25002315 -.01145187  00000+0 -46913-1 0  9995
2 64521  51.8788 330.5539 0007144  22.9668 313.0291 15.26868315  5643
KUIPER-00062            
1 64522U 25134Y   25248.61514506  .00013392  00000+0  88663-3 0  9994
2 64522  51.8874 338.2550 0010366  29.0508 331.1041 15.07563977 12578
KUIPER-00063            
1 64523U 25134Z   25249.25002315 -.01215000  00000+0 -10671+0 0  9999
2 64523  51.9017 334.4705 0006662 338.1375 229.0820 14.99076895  5399
KUIPER-00064            
1 64524U 25134AA  25249.25002315 -.00936737  00000+0 -63439-1 0  9998
2 64524  51.8861 332.8748 0006265  86.8838 257.2185 15.08941934  5703
KUIPER-00065            
1 64525U 25134AB  25249.25002315 -.00897081  00000+0 -86290-1 0  9997
2 64525  51.9032 336.5447 0009882  29.8566 127.0899 14.95146047  5663
KUIPER-00066            
1 64526U 25134AC  25249.25907893  .00017337  00000+0  85748-3 0  9998
2 64526  51.8912 332.7679 0005651  15.0555 345.0591 15.17890587 12704
KUIPER-00069            
1 64816U 25151A   25249.11990640  .00052158  00000+0  14254-2 0  9999
2 64816  51.8795  37.4059 0006409 328.7028  31.3576 15.36859831  9147
KUIPER-00070            
1 64817U 25151B   25249.25002315 -.00949760  00000+0 -83046-1 0  9998
2 64817  51.8952  42.0804 0007374   3.2994 322.9777 14.99001747  5895
